STARLINK-34448          
1 64291U 25123A   25275.66668980  .00049374  00000+0  40342-2 0  9996
2 64291  70.0003 232.9195 0003365 268.4819 229.1812 14.99111514  5927
STARLINK-34362          
1 64292U 25123B   25275.66668980  .00047251  00000+0  38610-2 0  9994
2 64292  69.9999 232.9975 0002726 267.2108 159.2188 14.99124498  5916
STARLINK-34428          
1 64293U 25123C   25275.66668980  .00046873  00000+0  38323-2 0  9995
2 64293  69.9997 232.7766 0003186 272.7007 350.4673 14.99103617  5926
STARLINK-34388          
1 64294U 25123D   25275.66668980  .00047511  00000+0  39643-2 0  9992
2 64294  69.9999 233.0181 0002129 258.5786 144.3234 14.98315825  5902
STARLINK-34424          
1 64295U 25123E   25275.66668980  .00040253  00000+0  32938-2 0  9999
2 64295  69.9996 233.0721 0003141 265.7655  84.1778 14.99121328  5829
STARLINK-34443          
1 64296U 25123F   25275.66668980  .00064490  00000+0  52510-2 0  9997
2 64296  69.9998 232.8761 0003341 272.0340 261.2745 14.99144922  5903
STARLINK-34369          
1 64297U 25123G   25275.66668980  .00041028  00000+0  33565-2 0  9999
2 64297  70.0000 232.9532 0002777 259.9907 200.5296 14.99124787  5929
STARLINK-34391          
1 64298U 25123H   25275.66668980  .00046757  00000+0  38215-2 0  9991
2 64298  69.9996 232.7108 0003184 270.6750  50.0205 14.99118761  5908
STARLINK-34378          
1 64299U 25123J   25275.66668980  .00052088  00000+0  43447-2 0  9999
2 64299  69.9995 232.8739 0002717 268.2895 269.6976 14.98296161  5816
STARLINK-34376          
1 64300U 25123K   25275.66668980  .00046983  00000+0  38394-2 0  9994
2 64300  69.9998 233.0272 0002613 267.8256 131.8843 14.99123356  5907
STARLINK-34372          
1 64301U 25123L   25275.66668980  .00043924  00000+0  36686-2 0  9999
2 64301  70.0001 232.9201 0001997 239.0320 254.7793 14.98304015  5915
STARLINK-34379          
1 64302U 25123M   25275.21073767  .00114373  00000+0  25715-2 0  9992
2 64302  70.0004 232.6790 0003145 268.9413  91.1408 15.42772335 17913
STARLINK-34356          
1 64303U 25123N   25275.66668980  .00045192  00000+0  37737-2 0  9998
2 64303  69.9999 232.7174 0002726 250.5822  63.3487 14.98301935  5870
STARLINK-34360          
1 64304U 25123P   25275.66668980  .00045006  00000+0  37584-2 0  9993
2 64304  69.9997 232.9964 0003297 269.2756 156.1737 14.98299905  5923
STARLINK-34383          
1 64305U 25123Q   25275.60450916  .00012594  00000+0  10612-2 0  9995
2 64305  70.0004 233.2486 0002447 273.9186  86.1693 14.98340306 17933
STARLINK-34355          
1 64306U 25123R   25275.60234361  .00009535  00000+0  78907-3 0  9993
2 64306  70.0006 233.2433 0002228 269.3001  90.7904 14.99145087 17936
STARLINK-34380          
1 64307U 25123S   25275.66668980 -.00150058  00000+0 -12555-1 0  9992
2 64307  70.0160 233.0444 0002705 275.5769 103.3535 14.99192746  5828
STARLINK-34374          
1 64308U 25123T   25275.66668980  .00055686  00000+0  45459-2 0  9992
2 64308  70.0001 232.9724 0003710 273.5724 169.7696 14.99101390  5928
STARLINK-34370          
1 64309U 25123U   25275.66668980  .00047404  00000+0  38719-2 0  9993
2 64309  70.0000 232.9411 0002924 278.6490 190.5799 14.99139047  5929
STARLINK-34357          
1 64310U 25123V   25275.66668980  .00040656  00000+0  33267-2 0  9990
2 64310  69.9999 233.0524 0002580 263.4707 113.0783 14.99120833  5907
STARLINK-34368          
1 64311U 25123W   25275.66668980 -.00721135  00000+0 -63295-1 0  9994
2 64311  69.9999 232.9876 0003069 298.8438 126.9237 14.98953423  5929
STARLINK-34384          
1 64312U 25123X   25275.66668980 -.00173211  00000+0 -14535-1 0  9994
2 64312  70.0114 232.9469 0002960 269.0837 200.7974 14.99209349  5912
STARLINK-34358          
1 64313U 25123Y   25275.66668980  .00016093  00000+0  13513-2 0  9993
2 64313  69.9999 232.8942 0004510 274.2154 242.0003 14.98386673  5916
STARLINK-34354          
1 64314U 25123Z   25275.66668980  .00049527  00000+0  40477-2 0  9991
2 64314  69.9998 232.8514 0002870 261.5506 292.4539 14.99100920  5922
STARLINK-34387          
1 64315U 25123AA  25275.66668980  .00050656  00000+0  41397-2 0  9999
2 64315  70.0000 232.8131 0002818 264.3210 323.8830 14.99096365  5920
STARLINK-33590          
1 64316U 25123AB  25275.66668980  .00043482  00000+0  36306-2 0  9993
2 64316  69.9991 232.8437 0003403 271.8315 288.6475 14.98316854  5904
STARLINK-11736 [DTC]    
1 64317U 25124A   25275.44738057  .00399576  00000+0  29540-2 0  9994
2 64317  42.9988 263.3510 0001631 279.1071  80.9613 15.70970277 17944
STARLINK-11673 [DTC]    
1 64318U 25124B   25275.68050554  .00342628  00000+0  25583-2 0  9999
2 64318  42.9982 261.6468 0003521  59.7675 300.3541 15.70901452 17986
STARLINK-11671 [DTC]    
1 64319U 25124C   25275.66986569  .00401811  00000+0  29669-2 0  9991
2 64319  42.9978 261.5607 0001682  32.6044 327.4927 15.70993241 17987
STARLINK-11594 [DTC]    
1 64320U 25124D   25275.45269506  .00360907  00000+0  26880-2 0  9997
2 64320  42.9986 263.3920 0000894 316.6893  43.3905 15.70908388 17941
STARLINK-11596 [DTC]    
1 64321U 25124E   25275.25132455  .00309559  00000+0  23180-2 0  9994
2 64321  42.9987 264.4563 0001600 263.3461  96.7224 15.70934712 17916
STARLINK-11747 [DTC]    
1 64322U 25124F   25275.11354440  .00360751  00000+0  26936-2 0  9993
2 64322  42.9981 265.1369 0005171 302.3689  57.6678 15.70842217 17890
STARLINK-11728 [DTC]    
1 64323U 25124G   25275.65392198  .00366122  00000+0  27133-2 0  9993
2 64323  42.9977 261.4305 0003641 286.3083  73.7384 15.71010587 17985
STARLINK-11696 [DTC]    
1 64324U 25124H   25275.34663904  .00536146  00000+0  38950-2 0  9990
2 64324  42.9975 263.4322 0001578 296.3807  63.6898 15.70981770 17930
STARLINK-11698 [DTC]    
1 64325U 25124J   25275.67078192  .00358317  00000+0  26645-2 0  9996
2 64325  42.9987 261.5655 0002585  43.4987 316.6084 15.70953839 17989
STARLINK-11678 [DTC]    
1 64326U 25124K   25275.43676084  .00390861  00000+0  28905-2 0  9996
2 64326  42.9995 263.2614 0001698 286.0417  74.0264 15.70988670 17942
STARLINK-11674 [DTC]    
1 64327U 25124L   25275.65924181  .00432160  00000+0  31785-2 0  9994
2 64327  42.9979 261.4713 0001538 317.9099  42.1650 15.70995960 17987
STARLINK-11707 [DTC]    
1 64328U 25124M   25275.67517267  .00383974  00000+0  28492-2 0  9999
2 64328  42.9980 261.5995 0001272   7.2632 352.8254 15.70928300 17985
STARLINK-11734 [DTC]    
1 64329U 25124N   25275.33070659  .00375391  00000+0  27841-2 0  9993
2 64329  42.9985 263.3012 0001154 277.6289  82.4448 15.70965812 17936
STARLINK-34252          
1 64330U 25124P   25275.42340848  .00055540  00000+0  20146-2 0  9997
2 64330  43.0007 295.6916 0001393 267.2378  92.8314 15.27548497 17570
STARLINK-34050          
1 64331U 25124Q   25275.47851128  .00049046  00000+0  17790-2 0  9996
2 64331  43.0016 295.2432 0001306 266.8234  93.2468 15.27599192 18642
STARLINK-33782          
1 64332U 25124R   25275.33617822  .00046515  00000+0  16887-2 0  9997
2 64332  43.0020 295.8914 0000872 277.1139  82.9614 15.27589860 17564
STARLINK-34207          
1 64333U 25124S   25275.48493801  .00053646  00000+0  19434-2 0  9997
2 64333  43.0008 295.2920 0001355 277.0296  83.0402 15.27604053 17583
STARLINK-34260          
1 64334U 25124T   25275.42725214  .00057534  00000+0  20813-2 0  9991
2 64334  43.0007 295.7140 0001203 272.9428  87.1286 15.27623184 17575
STARLINK-33855          
1 64335U 25124U   25275.33230411  .00061187  00000+0  22127-2 0  9991
2 64335  43.0030 295.8584 0001685 284.8942  75.1723 15.27608574 17560
STARLINK-34223          
1 64336U 25124V   25275.12508287  .00026675  00000+0  97524-3 0  9995
2 64336  43.0000 293.4256 0001066 332.6729  27.4066 15.27584346 17577
STARLINK-34216          
1 64337U 25124W   25275.44895700  .00047686  00000+0  17301-2 0  9999
2 64337  43.0040 295.0142 0001418 260.5377  99.5314 15.27601705 17589
STARLINK-34218          
1 64338U 25124X   25275.33280487  .00067738  00000+0  24474-2 0  9997
2 64338  42.9985 292.4010 0000866 211.5588 148.5212 15.27595384 17607
STARLINK-34017          
1 64339U 25124Y   25275.40927146  .00058255  00000+0  21079-2 0  9998
2 64339  43.0015 295.5769 0001330 258.1682 101.9020 15.27609807 17570
STARLINK-33977          
1 64344U 25126A   25275.66939546  .00008883  00000+0  75115-3 0  9994
2 64344  69.9998  72.8185 0003352 274.8726  85.2050 14.98340227 18226
STARLINK-34426          
1 64345U 25126B   25275.66505578  .00010901  00000+0  91961-3 0  9990
2 64345  70.0011  72.8011 0002843 274.6940  85.3894 14.98345178 17017
STARLINK-34437          
1 64346U 25126C   25275.69427729  .00010236  00000+0  86427-3 0  9997
2 64346  70.0008  72.9055 0002895 268.0379  92.0448 14.98334136 17015
STARLINK-34407          
1 64347U 25126D   25275.69862175  .00047944  00000+0  40001-2 0  9999
2 64347  70.0010  72.9146 0002787 260.3600  99.7245 14.98314863 17016
STARLINK-34274          
1 64348U 25126E   25275.71096775  .00008123  00000+0  68791-3 0  9991
2 64348  70.0004  72.9652 0003185 269.8275  90.2519 14.98323196 17016
STARLINK-34301          
1 64349U 25126F   25275.66922954  .00010299  00000+0  86948-3 0  9994
2 64349  70.0004  72.8158 0003185 268.0915  91.9879 14.98338834 17011
STARLINK-34425          
1 64350U 25126G   25275.69010264  .00011233  00000+0  94718-3 0  9994
2 64350  70.0002  72.8848 0003049 271.0604  89.0206 14.98352144 17017
STARLINK-34389          
1 64351U 25126H   25275.67774285  .00006768  00000+0  57437-3 0  9997
2 64351  70.0006  72.8407 0003034 274.2167  85.8645 14.98335432 17018
STARLINK-34385          
1 64352U 25126J   25275.70262535  .00010250  00000+0  86546-3 0  9996
2 64352  70.0001  72.9308 0003214 269.0867  90.9924 14.98334001 17012
STARLINK-34431          
1 64353U 25126K   25275.66521976  .00011902  00000+0  10031-2 0  9999
2 64353  69.9999  72.8052 0003181 270.1614  89.9180 14.98348786 17014
